RADFXSAT (FOX-1B)       
1 43017U 17073E   26068.59518419  .00011352  00000+0  51457-3 0  9993
2 43017  97.4852 297.8938 0154575 312.4525  46.3719 15.10873817450344
STARLINK-32184          
1 60942U 24155U   26068.45869868 -.00002923  00000+0 -86684-4 0  9997
2 60942  53.1599 130.8751 0000992  67.7239 292.3867 15.30171337 86253
